STARLINK-2022           
1 47643U 21012Z   24124.53995473  .00005139  00000+0  36378-3 0  9995
2 47643  53.0526 202.4804 0001287 103.7844 256.3289 15.06387909178506
